OPTICUBE 04             
1 41851U 16067D   24162.49450779  .00003774  00000+0  28654-3 0  9997
2 41851  98.0743 327.1549 0019273  78.9783 281.3607 15.02712414414235
AEROCUBE 8D             
1 41852U 16067E   24162.51942083  .00008325  00000+0  54914-3 0  9990
2 41852  98.1075 331.4079 0006228 125.1674 235.0137 15.07730732414390
AEROCUBE 8C             
1 41853U 16067F   24162.40004683  .00009596  00000+0  63260-3 0  9999
2 41853  98.0887 329.8779 0008832  67.9939 292.2225 15.07687558414366
PROMETHEUS 2-1          
1 41854U 16067G   24162.43305709  .00021150  00000+0  10751-2 0  9992
2 41854  98.0999 337.1524 0013326  83.4633 276.8115 15.16816363414712
PROMETHEUS 2-3          
1 41855U 16067H   24162.75903955  .00020946  00000+0  10659-2 0  9994
2 41855  98.0928 336.9949 0011524  92.1237 268.1314 15.16799556414762
DIDO-2                  
1 42000U 17008BE  24162.44841390  .00270033  00000+0  98043-3 0  9991
2 42000  97.1281 224.0353 0006109 182.1986 177.9260 15.87839345407732
AALTO-1                 
1 42775U 17036L   24162.64356088  .00098816  00000+0  91925-3 0  9997
2 42775  97.1026 192.1961 0006206 190.9423 169.1705 15.67063032388082
URSA MAIOR              
1 42776U 17036M   24162.81182161  .00430127  72771-4  13201-2 0  9990
2 42776  97.0919 196.8373 0008316 192.5509 167.5559 15.91784428388397
CICERO 6                
1 42793U 17036AE  24162.62407372  .04350425  22739-5  10655-2 0  9998
2 42793  97.0259 201.5466 0009398 234.1154 125.9268 16.29218381388803
CORVUS BC2              
1 42846U 17042X   24162.57502244  .00004907  00000+0  42325-3 0  9990
2 42846  97.3731 348.0468 0009248  83.4987 276.7288 14.97680667376450
CORVUS BC1              
1 42847U 17042Y   24162.47000243  .00006200  00000+0  53124-3 0  9999
2 42847  97.3741 348.3485 0010015  83.6132 276.6231 14.97838040376459
MIRATA                  
1 43015U 17073C   24162.43668792  .00022230  00000+0  10532-2 0  9992
2 43015  97.5952  47.2582 0168423 284.1252  74.1311 15.07578599355318
MAKERSAT 0              
1 43016U 17073D   24162.61262301  .00014304  00000+0  81769-3 0  9993
2 43016  97.5813  41.7757 0193729 304.8743  53.4399 14.98221149354927
CORVUS BC3              
1 43118U 18004H   24162.77254599  .01478106  17359-2  11738-2 0  9999
2 43118  97.2747 250.0261 0013906 262.9849  96.9856 16.14764444357931
GOMX-4B                 
1 43196U 18015E   24162.44605992  .00065059  00000+0  71344-3 0  9998
2 43196  97.6064 335.5451 0006101 331.6802  28.4123 15.63019392354476
GOMX-4A                 
1 43197U 18015F   24162.80598833  .00140353  00000+0  93673-3 0  9994
2 43197  97.5965 340.9405 0005048 301.8907  58.1866 15.74920042354872
CICERO 10               
1 43690U 18088A   24162.48910270  .00213064  00000+0  10893-2 0  9991
2 43690  85.0052 184.1460 0003061 196.8651 163.2522 15.80760176311157
SIRION PATHFINDER-2     
1 43759U 18099B   24162.70137670  .00007034  00000+0  53028-3 0  9995
2 43759  97.5289 219.0245 0010236 310.4533  49.5799 15.02725476301538
CORVUS BC4              
1 43767U 18099K   24162.39851053  .00006223  00000+0  47807-3 0  9994
2 43767  97.5140 215.9762 0010656  27.9678 332.2117 15.02045735301379
MOVE-II                 
1 43780U 18099Y   24162.42371132  .00021920  00000+0  11554-2 0  9998
2 43780  97.5213 225.4746 0005705  14.5381 345.6014 15.15582450301902
SPACEBEE-7              
1 43816U 18099BL  24162.12085470  .00017999  00000+0  10647-2 0  9995
2 43816  97.5483 225.9060 0008512 314.5351  45.5183 15.11477094301348
SPACEBEE-6              
1 43818U 18099BN  24162.44987079  .00036111  00000+0  15296-2 0  9990
2 43818  97.5407 231.4638 0006778 307.9761  52.0863 15.23046775301880
SHIELDS 1               
1 43850U 18104B   24162.42064239  .00018344  00000+0  49390-3 0  9996
2 43850  85.0230 287.7012 0012589  98.2682 261.9996 15.37639956305124
SONATE                  
1 44400U 19038Q   24162.54994714  .00021845  00000+0  66371-3 0  9996
2 44400  97.7120 156.3502 0018317 126.2060 234.0879 15.33917575273066
LUCKY-7                 
1 44406U 19038W   24162.56118448  .00039119  00000+0  86065-3 0  9991
2 44406  97.7017 160.3649 0015960 112.4503 247.8436 15.43743277273343
DUCHIFAT-3              
1 44854U 19089C   24162.14548673  .00019359  00000+0  98129-3 0  9993
2 44854  36.9576  91.7662 0005522   6.7091 353.3729 15.16242965247209
M2 PATHFINDER           
1 45727U 20037E   24162.43560642  .00005569  00000+0  48676-3 0  9990
2 45727  97.7762 338.9049 0012517 141.4386 218.7732 14.97118038214935
NETSAT-4                
1 46504U 20068U   24162.40109465  .00012634  00000+0  67655-3 0  9996
2 46504  97.8062 119.3578 0011064  37.3180 322.8818 15.15116438203148
NETSAT-3                
1 46505U 20068V   24162.38301298  .00011899  00000+0  64778-3 0  9997
2 46505  97.8031 118.8550 0010520  44.9511 315.2570 15.14551775203133
NETSAT-1                
1 46506U 20068W   24162.42550901  .00010179  00000+0  58091-3 0  9991
2 46506  97.8057 118.3884 0009507  54.1916 306.0196 15.12913468203100
NETSAT-2                
1 46507U 20068X   24162.88010102  .00013849  00000+0  74314-3 0  9999
2 46507  97.8047 119.4835 0009157  59.1883 301.0248 15.15035849203167
WILDTRACKCUBE-SIMBA     
1 47941U 21022K   24162.85875765  .00016785  00000+0  74955-3 0  9997
2 47941  97.4611  59.6830 0016354 159.6534 200.5356 15.21309503177508
BEESAT-6                
1 47957U 21022AB  24162.49712399  .00278993  00000+0  23291-2 0  9994
2 47957  97.4329  70.4711 0012254 123.5252 236.7182 15.69116921178019
SMOG-1                  
1 47964U 21022AJ  24162.71312205  .00190861  00000+0  18774-2 0  9996
2 47964  97.4607  73.7929 0012442 116.6151 243.6385 15.65303461177220
BCCSAT-1                
1 48041U 21022AK  24162.79188370  .00094283  00000+0  17721-2 0  9997
2 48041  97.4621  69.7235 0011166 114.7646 245.4768 15.48176492176944
BEESAT-5                
1 48083U 21022AM  24162.73221713  .01189368  69468-3  28433-2 0  9995
2 48083  97.3883  72.4496 0011108 142.4040 217.8015 15.96612566177355
BEESAT-7                
1 48084U 21022AN  24162.46639988  .00176016  00000+0  21537-2 0  9999
2 48084  97.4573  70.3907 0012375 123.8362 236.4074 15.59716613176712
BEESAT-8                
1 48085U 21022AP  24162.23397026  .00032301  00000+0  10315-2 0  9999
2 48085  97.4770  64.2411 0014061 141.7228 218.5014 15.32315207176819
LEDSAT                  
1 49069U 21073D   24162.88606710  .00020264  00000+0  81853-3 0  9993
2 49069  97.4372 234.0599 0017843 306.6299  53.3297 15.24646003155496
SITRO-AIS 5 (KATYS)     
1 57176U 23091L   24162.85622567  .00010239  00000+0  65923-3 0  9999
2 57176  97.6120 215.0938 0019063 140.6932 219.5684 15.08401918 52543
SITRO-AIS 6 (CHIRKIN)   
1 57192U 23091AC  24162.84164245  .00011389  00000+0  73165-3 0  9994
2 57192  97.6114 215.1034 0018699 140.9729 219.2852 15.08459630 52541
SITRO-AIS 8 (ANOKHIN)   
1 57193U 23091AD  24162.81087602  .00011235  00000+0  71562-3 0  9992
2 57193  97.6122 215.1363 0018599 141.4272 218.8289 15.08776619 52542
SITRO-AIS 7 (FARTUSHNIY)
1 57194U 23091AE  24162.84646934  .00010597  00000+0  68194-3 0  9992
2 57194  97.6113 215.0907 0018593 141.3638 218.8924 15.08415252 52544
SITRO-AIS 10 (BURDAEV)  
1 57199U 23091AK  24162.85507779  .00011669  00000+0  70871-3 0  9997
2 57199  97.6132 216.0626 0013830 130.1119 230.1325 15.10573759 52607
SITRO-AIS 9 (SHCHUKIN)  
1 57201U 23091AM  24162.85333556  .00011864  00000+0  72079-3 0  9990
2 57201  97.6126 216.0421 0013770 130.0918 230.1521 15.10559218 52608
SITRO-AIS 12 (SMIRENNIY)
1 57204U 23091AQ  24162.81662648  .00012614  00000+0  76198-3 0  9996
2 57204  97.6140 216.1336 0013782 124.7017 235.5513 15.10750459 52606
SITRO-AIS 11 (SHEFFER)  
1 57208U 23091AU  24162.86888099  .00012633  00000+0  76139-3 0  9991
2 57208  97.6136 216.2077 0013734 124.7051 235.5474 15.10834193 52618
SITRO-AIS 29            
1 59052U 24039B   24162.87183161  .00026991  00000+0  99652-3 0  9999
2 59052  97.3917 124.9269 0015784 231.9908 127.9907 15.27610000 15631
SITRO-AIS 30            
1 59053U 24039C   24162.87129188  .00025943  00000+0  95891-3 0  9996
2 59053  97.3916 124.9241 0015868 233.1326 126.8459 15.27580354 15629
SITRO-AIS 31            
1 59054U 24039D   24162.86511254  .00027046  00000+0  99601-3 0  9994
2 59054  97.3916 124.9326 0015798 232.9352 127.0444 15.27693888 15648
SITRO-AIS 33            
1 59055U 24039E   24162.85771261  .00027423  00000+0  10058-2 0  9997
2 59055  97.3920 124.9463 0015481 233.7051 126.2759 15.27829089 15633
SITRO-AIS 35            
1 59056U 24039F   24162.85434786  .00027701  00000+0  10151-2 0  9999
2 59056  97.3918 124.9490 0015270 233.8061 126.1767 15.27859395 15630
SITRO-AIS 32            
1 59057U 24039G   24162.85985074  .00026488  00000+0  97463-3 0  9994
2 59057  97.3921 124.9427 0015328 234.1221 125.8596 15.27732503 15638
SITRO-AIS 34            
1 59058U 24039H   24162.85700552  .00026232  00000+0  96353-3 0  9995
2 59058  97.3922 124.9484 0015461 234.0282 125.9524 15.27790300 15638
SITRO-AIS 36            
1 59059U 24039J   24162.85037662  .00029234  00000+0  10693-2 0  9998
2 59059  97.3918 124.9546 0015005 233.8487 126.1365 15.27912452 15631
SITRO-AIS 49            
1 59060U 24039K   24162.85022179  .00027105  00000+0  99249-3 0  9997
2 59060  97.3918 124.9545 0015087 233.4214 126.5638 15.27891781 15634
SITRO-AIS 50            
1 59061U 24039L   24162.84282957  .00027225  00000+0  99184-3 0  9990
2 59061  97.3918 124.9637 0014975 233.6788 126.3069 15.28059871 15633
SITRO-AIS 51            
1 59062U 24039M   24162.84223016  .00027502  00000+0  10027-2 0  9998
2 59062  97.3919 124.9651 0014959 233.5050 126.4812 15.28032986 15639
SITRO-AIS 52            
1 59063U 24039N   24162.83680438  .00027320  00000+0  99355-3 0  9993
2 59063  97.3922 124.9728 0014798 233.1907 126.7975 15.28119399 15634
